TRANSPORTER-12 OBJECT AZ
1 62656U 25009AZ  26068.71026235  .00016057  00000+0  54903-3 0  9991
2 62656  97.3981 151.9913 0000987  45.3581 314.7740 15.30349724 63792
STARLINK-35642          
1 66398U 25257U   26068.64955751  .00014489  00000+0  50050-3 0  9995
2 66398  53.1586 217.4734 0001058  94.1495 265.9627 15.30190026 19729
